NORAD_CAT_ID,OBJECT_NAME,OBJECT_TYPE,EPOCH,MEAN_MOTION,ECCENTRICITY,INCLINATION,RA_OF_ASC_NODE,ARG_OF_PERICENTER,MEAN_ANOMALY,BSTAR,MEAN_MOTION_DOT,MEAN_MOTION_DDOT,TLE_LINE0,TLE_LINE1,TLE_LINE2,SEMIMAJOR_AXIS,PERIOD,APOGEE,PERIGEE,DECAYED
53937.0,STARLINK-4765,PAYLOAD,2023-11-15 21:52:19,15.08842173,0.0001527,53.2178,126.4157,99.7569,260.3595,5.1118e-05,5.26e-06,0.0,0 STARLINK-4765,1 53937U 22119BD  23319.91134259  .00000526  00000-0  51118-4 0  9997,2 53937  53.2178 126.4157 0001527  99.7569 260.3595 15.08842173 64572,6917.874,95.437,540.795,538.682,0.0
53937.0,STARLINK-4765,PAYLOAD,2023-11-16 04:13:52,15.08841346,0.0001182,53.2156,125.2241,89.958,270.1547,4.1685e-05,3.76e-06,0.0,0 STARLINK-4765,1 53937U 22119BD  23320.17630291  .00000376  00000-0  41685-4 0  9995,2 53937  53.2156 125.2241 0001182  89.9580 270.1547 15.08841346 64612,6917.876,95.437,540.559,538.924,0.0
53937.0,STARLINK-4765,PAYLOAD,2023-11-17 04:04:39,15.08840672,0.0001164,53.2162,120.7641,89.7493,270.3632,4.0179e-05,3.52e-06,0.0,0 STARLINK-4765,1 53937U 22119BD  23321.16990426  .00000352  00000-0  40179-4 0  9995,2 53937  53.2162 120.7641 0001164  89.7493 270.3632 15.08840672 64342,6917.878,95.438,540.549,538.938,0.0
53937.0,STARLINK-4765,PAYLOAD,2023-11-17 10:26:12,15.08838392,0.0001217,53.216,119.5747,89.9319,270.1812,2.242e-05,6.9e-07,0.0,0 STARLINK-4765,1 53937U 22119BD  23321.43486674  .00000069  00000-0  22420-4 0  9994,2 53937  53.2160 119.5747 0001217  89.9319 270.1812 15.08838392 64806,6917.885,95.438,540.592,538.908,0.0
53937.0,STARLINK-4765,PAYLOAD,2023-11-17 16:47:45,15.08839721,0.0001504,53.2153,118.385,86.9939,273.1226,5.2659e-05,5.5e-06,0.0,0 STARLINK-4765,1 53937U 22119BD  23321.69982736  .00000550  00000-0  52659-4 0  9994,2 53937  53.2153 118.3850 0001504  86.9939 273.1226 15.08839721 64847,6917.881,95.438,540.787,538.706,0.0
53937.0,STARLINK-4765,PAYLOAD,2023-11-18 10:16:59,15.0884055,0.0001312,53.2163,115.1142,87.3052,272.8091,5.5635e-05,5.98e-06,0.0,0 STARLINK-4765,1 53937U 22119BD  23322.42846684  .00000598  00000-0  55635-4 0  9996,2 53937  53.2163 115.1142 0001312  87.3052 272.8091 15.08840550 64539,6917.879,95.438,540.651,538.836,0.0
53937.0,STARLINK-4765,PAYLOAD,2023-11-19 13:18:33,15.08837812,0.0001343,53.2176,110.0605,83.2665,276.848,3.9416e-05,3.39e-06,0.0,0 STARLINK-4765,1 53937U 22119BD  23323.55454881  .00000339  00000-0  39416-4 0  9997,2 53937  53.2176 110.0605 0001343  83.2665 276.8480 15.08837812 65129,6917.887,95.438,540.681,538.823,0.0
53937.0,STARLINK-4765,PAYLOAD,2023-11-19 16:29:19,15.08839705,0.0001331,53.2171,109.4645,91.2743,268.8401,5.7329e-05,6.25e-06,0.0,0 STARLINK-4765,1 53937U 22119BD  23323.68702675  .00000625  00000-0  57329-4 0  9999,2 53937  53.2171 109.4645 0001331  91.2743 268.8401 15.08839705 64725,6917.881,95.438,540.667,538.826,0.0
53937.0,STARLINK-4765,PAYLOAD,2023-11-20 14:44:41,15.08865656,0.0001399,53.2176,105.3007,87.0209,273.0943,0.00021777,3.182e-05,0.0,0 STARLINK-4765,1 53937U 22119BD  23324.61436421  .00003182  00000-0  21777-3 0  9994,2 53937  53.2176 105.3007 0001399  87.0209 273.0943 15.08865656 65286,6917.802,95.436,540.635,538.699,0.0
53937.0,STARLINK-4765,PAYLOAD,2023-11-20 16:20:04,15.08866901,0.0001343,53.217,105.0039,90.6522,269.4624,0.00021836,3.191e-05,0.0,0 STARLINK-4765,1 53937U 22119BD  23324.68060214  .00003191  00000-0  21836-3 0  9990,2 53937  53.2170 105.0039 0001343  90.6522 269.4624 15.08866901 64872,6917.798,95.436,540.592,538.734,0.0
53937.0,STARLINK-4765,PAYLOAD,2023-11-21 09:49:20,15.08831764,8.36e-05,53.2177,101.7338,83.4486,276.6601,-2.6089e-05,-7.03e-06,0.0,0 STARLINK-4765,1 53937U 22119BD  23325.40927002 -.00000703  00000-0 -26089-4 0  9992,2 53937  53.2177 101.7338 0000836  83.4486 276.6601 15.08831764 64985,6917.906,95.438,540.349,539.192,0.0
53937.0,STARLINK-4765,PAYLOAD,2023-11-21 13:00:07,15.08834506,0.000131,53.2179,101.1384,100.1936,259.9204,-5.2763e-06,-3.72e-06,0.0,0 STARLINK-4765,1 53937U 22119BD  23325.54174854 -.00000372  00000-0 -52763-5 0  9997,2 53937  53.2179 101.1384 0001310 100.1936 259.9204 15.08834506 65427,6917.897,95.438,540.668,538.856,0.0
53937.0,STARLINK-4765,PAYLOAD,2023-11-21 16:10:53,15.08834344,0.0001387,53.2178,100.5438,102.6077,257.507,-1.9965e-05,-6.06e-06,0.0,0 STARLINK-4765,1 53937U 22119BD  23325.67422905 -.00000606  00000-0 -19965-4 0  9990,2 53937  53.2178 100.5438 0001387 102.6077 257.5070 15.08834344 65443,6917.898,95.438,540.722,538.803,0.0
53937.0,STARLINK-4765,PAYLOAD,2023-11-22 09:40:07,15.08847089,0.0001979,53.2184,97.2725,121.6915,238.427,-7.1225e-05,-1.422e-05,0.0,0 STARLINK-4765,1 53937U 22119BD  23326.40286405 -.00001422  00000-0 -71225-4 0  9999,2 53937  53.2184  97.2725 0001979 121.6915 238.4270 15.08847089 65136,6917.859,95.437,541.093,538.355,0.0
53937.0,STARLINK-4765,PAYLOAD,2023-11-22 14:26:16,15.08849614,9.79e-05,53.218,96.3796,104.0809,256.0292,5.9363e-05,6.57e-06,0.0,0 STARLINK-4765,1 53937U 22119BD  23326.60157797  .00000657  00000-0  59363-4 0  9998,2 53937  53.2180  96.3796 0000979 104.0809 256.0292 15.08849614 65581,6917.851,95.437,540.393,539.039,0.0
53937.0,STARLINK-4765,PAYLOAD,2023-11-23 07:55:32,15.08828371,0.0001399,53.2181,93.109,96.0379,264.0772,5.3545e-05,5.64e-06,0.0,0 STARLINK-4765,1 53937U 22119BD  23327.33023453  .00000564  00000-0  53545-4 0  9993,2 53937  53.2181  93.1090 0001399  96.0379 264.0772 15.08828371 65278,6917.916,95.438,540.749,538.813,0.0
53937.0,STARLINK-4765,PAYLOAD,2023-11-23 14:17:05,15.08824744,0.0001315,53.2181,91.9182,104.2777,255.8361,1.0991e-05,-1.13e-06,0.0,0 STARLINK-4765,1 53937U 22119BD  23327.59520030 -.00000113  00000-0  10991-4 0  9993,2 53937  53.2181  91.9182 0001315 104.2777 255.8361 15.08824744 65731,6917.927,95.439,540.702,538.882,0.0
53937.0,STARLINK-4765,PAYLOAD,2023-11-23 15:52:28,15.08824521,0.0001258,53.218,91.6209,89.0469,271.0667,3.5797e-06,-2.31e-06,0.0,0 STARLINK-4765,1 53937U 22119BD  23327.66144198 -.00000231  00000-0  35797-5 0  9991,2 53937  53.2180  91.6209 0001258  89.0469 271.0667 15.08824521 65744,6917.928,95.439,540.663,538.922,0.0
53937.0,STARLINK-4765,PAYLOAD,2023-11-24 07:46:19,15.08839118,0.0001583,53.2172,88.6457,115.77,244.3455,-9.6672e-05,-1.826e-05,0.0,0 STARLINK-4765,1 53937U 22119BD  23328.32384113 -.00001826  00000-0 -96672-4 0  9998,2 53937  53.2172  88.6457 0001583 115.7700 244.3455 15.08839118 65423,6917.883,95.438,540.843,538.653,0.0
53937.0,STARLINK-4765,PAYLOAD,2023-11-24 14:07:51,15.08845824,0.0001338,53.2181,87.4599,89.6638,270.4508,5.2035e-05,5.4e-06,0.0,0 STARLINK-4765,1 53937U 22119BD  23328.58879278  .00000540  00000-0  52035-4 0  9992,2 53937  53.2181  87.4599 0001338  89.6638 270.4508 15.08845824 65884,6917.863,95.437,540.653,538.802,0.0
53937.0,STARLINK-4765,PAYLOAD,2023-11-24 15:43:14,15.08848649,0.0001543,53.2178,87.163,70.2928,289.823,0.00020945,3.048e-05,0.0,0 STARLINK-4765,1 53937U 22119BD  23328.65503132  .00003048  00000-0  20945-3 0  9993,2 53937  53.2178  87.1630 0001543  70.2928 289.8230 15.08848649 65478,6917.854,95.437,540.786,538.652,0.0
53937.0,STARLINK-4765,PAYLOAD,2023-11-25 13:58:39,15.08846133,0.0002275,53.2185,82.9984,50.3774,309.7419,0.00034619,5.227e-05,0.0,0 STARLINK-4765,1 53937U 22119BD  23329.58239850  .00005227  00000-0  34619-3 0  9993,2 53937  53.2185  82.9984 0002275  50.3774 309.7419 15.08846133 66032,6917.862,95.437,541.3,538.153,0.0
53937.0,STARLINK-4765,PAYLOAD,2023-11-25 15:34:01,15.08863262,0.0001441,53.2182,82.6997,68.8894,291.2252,0.00056827,8.773e-05,0.0,0 STARLINK-4765,1 53937U 22119BD  23329.64862821  .00008773  00000-0  56827-3 0  9994,2 53937  53.2182  82.6997 0001441  68.8894 291.2252 15.08863262 66044,6917.809,95.436,540.671,538.677,0.0
53937.0,STARLINK-4765,PAYLOAD,2023-11-26 13:49:25,15.08825844,0.0001559,53.2188,78.5394,61.2148,298.9001,-0.00036444,-6.081e-05,0.0,0 STARLINK-4765,1 53937U 22119BD  23330.57599456 -.00006081  00000-0 -36444-3 0  9994,2 53937  53.2188  78.5394 0001559  61.2148 298.9001 15.08825844 66189,6917.924,95.438,540.867,538.71,0.0
53937.0,STARLINK-4765,PAYLOAD,2023-11-27 12:04:51,15.08821175,0.000168,53.22,74.373,80.5518,279.5664,-0.00038107,-6.345e-05,0.0,0 STARLINK-4765,1 53937U 22119BD  23331.50336933 -.00006345  00000-0 -38107-3 0  9998,2 53937  53.2200  74.3730 0001680  80.5518 279.5664 15.08821175 66321,6917.938,95.439,540.965,538.641,0.0
53937.0,STARLINK-4765,PAYLOAD,2023-11-28 11:55:36,15.08853084,0.0001645,53.2187,69.9103,119.3366,240.7791,0.00027308,4.062e-05,0.0,0 STARLINK-4765,1 53937U 22119BD  23332.49694827  .00004062  00000-0  27308-3 0  9999,2 53937  53.2187  69.9103 0001645 119.3366 240.7791 15.08853084 66057,6917.84,95.437,540.843,538.567,0.0
53937.0,STARLINK-4765,PAYLOAD,2023-11-28 13:31:00,15.08831249,0.0001464,53.2191,69.6184,85.3891,274.7268,0.00039174,5.951e-05,0.0,0 STARLINK-4765,1 53937U 22119BD  23332.56319920  .00005951  00000-0  39174-3 0  9997,2 53937  53.2191  69.6184 0001464  85.3891 274.7268 15.08831249 66484,6917.907,95.438,540.785,538.759,0.0
53937.0,STARLINK-4765,PAYLOAD,2023-11-29 13:21:47,15.08856869,0.0001522,53.2184,65.1553,103.4659,256.6503,0.000322,4.843e-05,0.0,0 STARLINK-4765,1 53937U 22119BD  23333.55679558  .00004843  00000-0  32200-3 0  9995,2 53937  53.2184  65.1553 0001522 103.4659 256.6503 15.08856869 66639,6917.829,95.436,540.747,538.641,0.0
53937.0,STARLINK-4765,PAYLOAD,2023-11-30 11:37:10,15.0884638,0.0001776,53.2196,60.9913,95.8839,264.2356,0.00020985,3.054e-05,0.0,0 STARLINK-4765,1 53937U 22119BD  23334.48415500  .00003054  00000-0  20985-3 0  9993,2 53937  53.2196  60.9913 0001776  95.8839 264.2356 15.08846380 66357,6917.861,95.437,540.955,538.497,0.0
53937.0,STARLINK-4765,PAYLOAD,2023-12-01 11:27:58,15.08859117,0.0002259,53.2194,56.5319,75.5348,284.5895,-0.00027727,-4.701e-05,0.0,0 STARLINK-4765,1 53937U 22119BD  23335.47776093 -.00004701  00000-0 -27727-3 0  9993,2 53937  53.2194  56.5319 0002259  75.5348 284.5895 15.08859117 66505,6917.822,95.436,541.25,538.124,0.0
